202P/Scotti,e,2.0993,177.6856,276.9502,4.075123,0.1198100,0.26323105,252.3534,12/07.0/2021,2000,g 13.5,4.0
# From MPEC 2021-S45
203P/Korlevic,e,2.9727,290.3332,154.7880,4.670534,0.0976460,0.31527283,62.7216,12/07.0/2021,2000,g 14.5,2.0
# From MPC 98566
204P/LINEAR-NEAT,e,6.5967,108.5339,356.5036,3.585963,0.1451427,0.48810885,309.9789,12/07.0/2021,2000,g 14.0,4.0
# From MPEC 2021-W31
205P/Giacobini,e,15.3053,179.6031,154.1986,3.543564,0.1477555,0.56820244,354.4257,12/07.0/2021,2000,g 13.0,4.0
# From MPC 75725
206P/Barnard-Boattini,e,33.6338,202.3405,189.4909,3.488491,0.1512682,0.55142259,41.9729,12/07.0/2021,2000,g 19.0,4.0
# From MPC 75725
207P/NEAT,e,10.1905,198.2787,273.0335,3.872935,0.1293135,0.75894969,258.3817,12/07.0/2021,2000,g 16.0,4.0
# From MPEC 2020-W26
208P/McMillan,e,4.4116,36.3413,310.4948,4.044397,0.1211779,0.37402556,239.9935,12/07.0/2021,2000,g 12.5,4.0
# From MPC 90771
209P/LINEAR,e,21.2553,62.7744,152.4538,2.959961,0.1935420,0.67302213,175.8644,12/07.0/2021,2000,g 17.0,2.0
# From MPC105242
210P/Christensen,e,10.2648,93.8242,345.8935,3.163813,0.1751411,0.83329320,106.5033,12/07.0/2021,2000,g 13.5,4.0
# From MPEC 2021-WD8
211P/Hill,e,18.9213,117.1316,4.2702,3.545982,0.1476044,0.34353506,315.4832,12/07.0/2021,2000,g 12.5,4.0
# From MPEC 2021-F20
212P/NEAT,e,22.2057,98.2344,14.0774,3.891203,0.1284039,0.58771518,248.2564,12/07.0/2021,2000,g 17.0,2.0
# From MPC114608
213P/Van Ness,e,10.3817,311.2963,5.6727,3.347312,0.1609384,0.40826220,246.6637,12/07.0/2021,2000,g 10.5,4.0
# From MPC 92986
214P/LINEAR,e,15.1834,348.2491,190.2115,3.618857,0.1431683,0.48581783,318.0113,12/07.0/2021,2000,g 13.0,4.0
# From MPEC 2021-WD8
215P/NEAT,e,10.5798,56.6855,262.2551,4.328888,0.1094308,0.16668640,81.9432,12/07.0/2021,2000,g 11.0,4.0
# From MPC100284
216P/LINEAR,e,9.0635,359.8107,151.3905,3.866457,0.1296386,0.44737815,261.3464,12/07.0/2021,2000,g 13.0,4.0
# From MPEC 2021-N06
217P/LINEAR,e,12.8637,125.4688,246.8630,3.950039,0.1255458,0.68900351,201.2322,12/07.0/2021,2000,g 12.0,4.0
# From MPEC 2020-K19
218P/LINEAR,e,2.7281,175.9719,59.7095,3.092098,0.1812693,0.62219511,77.8028,12/07.0/2021,2000,g 16.0,4.0
# From MPC100284
219P/LINEAR,e,11.5344,230.9589,107.4786,3.648802,0.1414095,0.35409405,247.0969,12/07.0/2021,2000,g 11.0,4.0
# From MPEC 2021-BE3
220P/McNaught,e,8.1288,150.1014,180.5556,3.116186,0.1791715,0.50169525,64.7453,12/07.0/2021,2000,g 15.0,4.0
# From MPEC 2021-J28
221P/LINEAR,e,11.4277,229.7030,40.1168,3.455359,0.1534491,0.49263448,358.3009,12/07.0/2021,2000,g 14.5,4.0
# From MPC 92277
222P/LINEAR,e,5.0982,6.7767,346.2560,2.899234,0.1996545,0.71473911,182.7789,12/07.0/2021,2000,g 20.0,4.0
# From MPEC 2021-S45
223P/Skiff,e,27.0265,346.7706,37.8190,4.158959,0.1162056,0.41619086,121.3386,12/07.0/2021,2000,g 12.0,4.0
# From MPC 75727
224P/LINEAR-NEAT,e,13.2981,40.0832,16.6435,3.447040,0.1540049,0.40669480,314.2736,12/07.0/2021,2000,g 15.5,4.0
# From MPC 75727
225P/LINEAR,e,21.3648,14.1995,3.8796,3.649429,0.1413731,0.63827264,273.8860,12/07.0/2021,2000,g 18.0,4.0
# From MPC106349
226P/Pigott-LINEAR-Kowalski,e,44.0327,54.0040,341.0443,3.767053,0.1348036,0.52869590,258.8452,12/07.0/2021,2000,g 12.5,4.0
# From MPC102956
227P/Catalina-LINEAR,e,6.6774,44.7481,95.0941,3.530395,0.1485830,0.52237882,238.4350,12/07.0/2021,2000,g 16.5,2.0
# From MPEC 2020-L06
228P/LINEAR,e,7.9126,30.9821,115.0734,4.169501,0.1157652,0.17626050,73.8299,12/07.0/2021,2000,g 14.5,2.0
# From MPC106349
229P/Gibbs,e,26.0925,157.9115,223.9793,3.928705,0.1265697,0.37742967,210.0656,12/07.0/2021,2000,g 13.0,4.0
# From MPEC 2021-W31
230P/LINEAR,e,15.4702,106.9870,313.4195,3.452064,0.1536688,0.54554479,344.2770,12/07.0/2021,2000,g 13.0,4.0
# From MPEC 2021-UA9
231P/LINEAR-NEAT,e,12.3307,133.0169,43.7916,4.034650,0.1216173,0.24633323,109.8698,12/07.0/2021,2000,g 14.1,4.0
# From MPC112394
232P/Hill,e,14.6372,56.0156,53.3403,4.478094,0.1040074,0.33425778,101.5495,12/07.0/2021,2000,g 11.5,4.0
# From MPEC 2021-N06
233P/La Sagra,e,11.2848,74.9171,27.0136,3.029781,0.1868905,0.41185472,80.6252,12/07.0/2021,2000,g 15.0,4.0
# From MPC110497
234P/LINEAR,e,11.5338,179.5671,357.2225,3.799456,0.1330828,0.25528504,219.9579,12/07.0/2021,2000,g 12.0,4.0
# From MPC110497
235P/LINEAR,e,9.0019,203.0762,333.3886,3.954337,0.1253411,0.32670833,170.2344,12/07.0/2021,2000,g 12.0,4.0
# From MPC107688
236P/LINEAR,e,16.3406,245.6033,119.2625,3.729543,0.1368424,0.50915890,202.0180,12/07.0/2021,2000,g 14.0,4.0
# From MPC109593
237P/LINEAR,e,14.0149,245.3789,25.2365,3.512283,0.1497338,0.43436701,281.6008,12/07.0/2021,2000,g 14.5,2.0
# From MPC107688
238P/Read,e,1.2641,51.6250,324.3377,3.168529,0.1747502,0.25237455,328.3973,12/07.0/2021,2000,g 14.5,4.0
# From MPEC 2021-F20
239P/LINEAR,e,11.2978,255.9147,220.4239,4.469493,0.1043078,0.63006136,110.8457,12/07.0/2021,2000,g 17.5,2.0
# From MPEC 2021-F20
240P/NEAT,e,23.5164,74.9095,351.9472,3.865866,0.1296683,0.44921805,168.7393,12/07.0/2021,2000,g 12.1,4.0
# From MPEC 2021-WD8
241P/LINEAR,e,21.1067,305.4839,111.4322,4.917839,0.0903738,0.61007965,12.1246,12/07.0/2021,2000,g 13.5,4.0
# From MPEC 2021-S45
242P/Spahr,e,32.5002,180.3931,245.8585,5.487898,0.0766646,0.27829533,274.1010,12/07.0/2021,2000,g  8.0,4.0
# From MPC111774
243P/NEAT,e,7.6404,87.6277,283.5571,3.830661,0.1314600,0.36034967,157.4966,12/07.0/2021,2000,g 12.5,4.0
# From MPEC 2021-WD8
244P/Scotti,e,2.2594,353.9907,93.0245,4.894842,0.0910114,0.19897730,328.6303,12/07.0/2021,2000,g  9.0,4.0
# From MPEC 2020-K19
245P/WISE,e,21.1965,316.6506,316.8831,4.045422,0.1211318,0.45685663,169.3035,12/07.0/2021,2000,g 14.0,4.0
# From MPEC 2021-WD8
246P/NEAT,e,15.9770,78.7183,176.4469,4.022267,0.1221793,0.28786284,35.0168,12/07.0/2021,2000,g 10.5,4.0
# From MPEC 2021-F20
247P/LINEAR,e,13.6548,54.0132,47.4480,3.968689,0.1246618,0.62427365,137.3354,12/07.0/2021,2000,g 16.5,2.0
# From MPC 75730
248P/Gibbs,e,6.3499,207.7868,209.8534,5.991501,0.0672048,0.63856495,267.3458,12/07.0/2021,2000,g 14.0,4.0
# From MPEC 2021-S45
249P/LINEAR,e,8.3915,239.1424,65.6638,2.763066,0.2145938,0.82001912,112.7694,12/07.0/2021,2000,g 15.5,4.0
# From MPC110497
250P/Larson,e,13.1626,73.4569,46.1595,3.764295,0.1349518,0.39993941,190.2463,12/07.0/2021,2000,g 14.5,4.0
# From MPC104795
251P/LINEAR,e,23.3894,219.3671,31.2878,3.511414,0.1497894,0.50483254,240.4454,12/07.0/2021,2000,g 16.5,2.0
# From MPEC 2021-S45
252P/LINEAR,e,10.4099,190.9450,343.2985,3.049032,0.1851233,0.67186385,27.5291,12/07.0/2021,2000,g 17.5,4.0
# From MPEC 2020-FB5
253P/PANSTARRS,e,4.9435,146.8856,230.6467,3.466094,0.1527368,0.41416572,199.7960,12/07.0/2021,2000,g 14.5,4.0
# From MPEC 2021-WD8
254P/McNaught,e,32.5721,129.1761,219.5520,4.613006,0.0994782,0.31980020,43.0757,12/07.0/2021,2000,g 11.0,4.0
# From MPEC 2021-UA9
255P/Levy,e,13.4206,275.7350,185.9439,2.944331,0.1950851,0.71188666,306.5035,12/07.0/2021,2000,g 14.1,4.0
# From MPC 84027
256P/LINEAR,e,27.6224,81.3467,124.2320,4.638408,0.0986622,0.41798893,314.5757,12/07.0/2021,2000,g 14.0,2.0
# From MPEC 2021-W31
257P/Catalina,e,20.2215,207.7306,117.6836,3.762485,0.1350492,0.43039165,61.0751,12/07.0/2021,2000,g 11.5,4.0
# From MPEC 2021-U31
258P/PANSTARRS,e,6.7460,126.2460,25.9424,4.397332,0.1068859,0.20848404,57.3425,12/07.0/2021,2000,g 13.0,4.0
# From MPC106349
259P/Garradd,e,15.8907,51.4514,257.6480,2.730121,0.2184898,0.33862385,346.1451,12/07.0/2021,2000,g 15.5,4.0
# From MPEC 2020-SI8
260P/McNaught,e,15.0584,349.3383,18.4165,3.623013,0.1429220,0.60924918,117.0112,12/07.0/2021,2000,g 13.5,4.0
# From MPEC 2021-J28
261P/Larson,e,6.0742,291.1502,67.1821,3.490349,0.1511475,0.42330701,136.3118,12/07.0/2021,2000,g 14.0,4.0
# From MPC 82322
262P/McNaught-Russell,e,29.2443,217.8752,171.0243,6.873506,0.0546936,0.81590585,180.0234,12/07.0/2021,2000,g 13.5,4.0
# From MPC 89018
263P/Gibbs,e,11.5230,105.5959,34.8327,3.045948,0.1854045,0.59331220,282.2110,12/07.0/2021,2000,g  9.0,4.0
# From MPC114608
264P/Larsen,e,25.1788,220.5301,346.7235,3.892021,0.1283634,0.37515092,109.8007,12/07.0/2021,2000,g 13.0,4.0
# From MPC 79870
265P/LINEAR,e,14.3651,342.9255,33.4460,4.253438,0.1123554,0.64753883,33.8100,12/07.0/2021,2000,g 14.5,4.0
# From MPEC 2021-F20
266P/Christensen,e,3.4270,4.9982,97.7411,3.533235,0.1484039,0.33950734,88.5614,12/07.0/2021,2000,g 14.7,4.0
# From MPC114608
267P/LONEOS,e,6.1402,228.5993,114.1791,3.211551,0.1712505,0.61437563,211.0884,12/07.0/2021,2000,g 19.5,4.0
# From MPC 92277
268P/Bernardi,e,16.0482,127.4207,359.8233,4.546874,0.1016564,0.47723656,246.8438,12/07.0/2021,2000,g 14.0,4.0
# From MPC104795
269P/Jedicke,e,7.0752,241.7190,225.8027,7.074185,0.0523829,0.43071014,137.5580,12/07.0/2021,2000,g 10.0,4.0
# From MPC 88332
270P/Gehrels,e,2.9213,222.9952,209.7962,6.663472,0.0572998,0.46795764,177.8736,12/07.0/2021,2000,g  8.0,4.0
# From MPC 92277
271P/van Houten-Lemmon,e,6.8715,9.3147,36.3842,7.040799,0.0527559,0.39474798,161.8782,12/07.0/2021,2000,g 11.0,4.0
# From MPC 81862
272P/NEAT,e,18.0754,109.4696,27.9119,4.458590,0.1046906,0.45450222,336.7477,12/07.0/2021,2000,g 16.0,2.0
# From MPC 82723
273P/Pons-Gambart,e,136.7857,320.4007,20.3307,31.88623,0.0054739,0.97417312,0.0000,12/19.2383/2012,2000,g 11.5,4.0
# From MPEC 2021-WD8
274P/Tombaugh-Tenagra,e,15.8165,81.3408,38.4723,4.374496,0.1077239,0.43921213,346.8058,12/07.0/2021,2000,g 13.0,4.0
# From MPC 81862
275P/Hermann,e,21.2746,348.7572,174.0341,5.774265,0.0710328,0.71245466,232.7919,12/07.0/2021,2000,g 17.0,4.0
# From MPEC 2020-K19
276P/Vorobjov,e,14.8103,211.3785,199.6300,5.320048,0.0803213,0.26741662,271.3685,12/07.0/2021,2000,g 11.5,4.0
# From MPEC 2021-F20
277P/LINEAR,e,16.7770,276.3376,152.3156,3.853429,0.1302966,0.50583983,44.5373,12/07.0/2021,2000,g 15.1,4.0
# From MPEC 2021-S45
278P/McNaught,e,6.6930,15.3823,237.9464,3.691969,0.1389367,0.43575865,62.6911,12/07.0/2021,2000,g 14.0,4.0
# From MPC100285
279P/La Sagra,e,5.0526,346.2340,5.8255,3.573350,0.1459119,0.39863377,287.2535,12/07.0/2021,2000,g 14.0,4.0
# From MPC 89013
